{"fetched_at":"2026-07-20T07:40:28.790Z","source":"https://celestrak.org/NORAD/elements/gp.php?GROUP=spire&FORMAT=JSON","constellation":"spire","records":[{"OBJECT_NAME":"LEMUR-2-MYRA","OBJECT_ID":"2025-276EC","EPOCH":"2026-07-19T17:41:57.008832","CLASSIFICATION_TYPE":"U","MEAN_MOTION":15.00618344,"ECCENTRICITY":0.0018591,"INCLINATION":97.5221,"RA_OF_ASC_NODE":270.5586,"ARG_OF_PERICENTER":40.4186,"MEAN_ANOMALY":319.8416,"EPHEMERIS_TYPE":0,"NORAD_CAT_ID":66787,"ELEMENT_SET_NO":999,"REV_AT_EPOCH":3509,"BSTAR":0.00024574,"MEAN_MOTION_DOT":0.00003058,"MEAN_MOTION_DDOT":0},{"OBJECT_NAME":"LEMUR-2 FIKRETDENGIZ","OBJECT_ID":"2026-004A","EPOCH":"2026-07-19T11:16:44.237280","CLASSIFICATION_TYPE":"U","MEAN_MOTION":14.88533773,"ECCENTRICITY":0.00098878,"INCLINATION":97.8033,"RA_OF_ASC_NODE":198.5382,"ARG_OF_PERICENTER":43.8961,"MEAN_ANOMALY":316.304,"EPHEMERIS_TYPE":0,"NORAD_CAT_ID":67363,"ELEMENT_SET_NO":999,"REV_AT_EPOCH":2808,"BSTAR":0.00023755522,"MEAN_MOTION_DOT":0.00002156,"MEAN_MOTION_DDOT":0},{"OBJECT_NAME":"TWILIGHT-1 OBJECT B","OBJECT_ID":"2026-004B","EPOCH":"2026-07-19T17:03:46.230336","CLASSIFICATION_TYPE":"U","MEAN_MOTION":14.87801709,"ECCENTRICITY":0.0009402,"INCLINATION":97.8077,"RA_OF_ASC_NODE":198.7739,"ARG_OF_PERICENTER":32.8573,"MEAN_ANOMALY":327.3226,"EPHEMERIS_TYPE":0,"NORAD_CAT_ID":67364,"ELEMENT_SET_NO":999,"REV_AT_EPOCH":2812,"BSTAR":0.000093768,"MEAN_MOTION_DOT":0.00000802,"MEAN_MOTION_DDOT":0},{"OBJECT_NAME":"LEMUR-2-MARIO-SOUSA","OBJECT_ID":"2026-004C","EPOCH":"2026-07-19T17:14:00.189600","CLASSIFICATION_TYPE":"U","MEAN_MOTION":14.8874717,"ECCENTRICITY":0.000951,"INCLINATION":97.8006,"RA_OF_ASC_NODE":198.7777,"ARG_OF_PERICENTER":44.5315,"MEAN_ANOMALY":315.6664,"EPHEMERIS_TYPE":0,"NORAD_CAT_ID":67365,"ELEMENT_SET_NO":999,"REV_AT_EPOCH":2813,"BSTAR":0.00020987,"MEAN_MOTION_DOT":0.00001908,"MEAN_MOTION_DDOT":0},{"OBJECT_NAME":"LEMUR-2-SONNENBLUME","OBJECT_ID":"2026-004E","EPOCH":"2026-07-19T10:52:06.867264","CLASSIFICATION_TYPE":"U","MEAN_MOTION":14.88465326,"ECCENTRICITY":0.00091639,"INCLINATION":97.8003,"RA_OF_ASC_NODE":198.4871,"ARG_OF_PERICENTER":46.307,"MEAN_ANOMALY":313.8905,"EPHEMERIS_TYPE":0,"NORAD_CAT_ID":67367,"ELEMENT_SET_NO":999,"REV_AT_EPOCH":2809,"BSTAR":0.00014525048,"MEAN_MOTION_DOT":0.00001294,"MEAN_MOTION_DDOT":0},{"OBJECT_NAME":"LEMUR-2-WOBLER","OBJECT_ID":"2026-004F","EPOCH":"2026-07-19T10:35:40.364160","CLASSIFICATION_TYPE":"U","MEAN_MOTION":14.88714053,"ECCENTRICITY":0.00091799,"INCLINATION":97.8057,"RA_OF_ASC_NODE":198.6312,"ARG_OF_PERICENTER":37.7579,"MEAN_ANOMALY":322.4281,"EPHEMERIS_TYPE":0,"NORAD_CAT_ID":67368,"ELEMENT_SET_NO":999,"REV_AT_EPOCH":2809,"BSTAR":0.00019638808,"MEAN_MOTION_DOT":0.00001781,"MEAN_MOTION_DDOT":0},{"OBJECT_NAME":"LEMUR-2-GRAM-E-SUE","OBJECT_ID":"2026-004H","EPOCH":"2026-07-19T10:24:48.101184","CLASSIFICATION_TYPE":"U","MEAN_MOTION":14.88599959,"ECCENTRICITY":0.00083487,"INCLINATION":97.7989,"RA_OF_ASC_NODE":198.4851,"ARG_OF_PERICENTER":49.5477,"MEAN_ANOMALY":310.6466,"EPHEMERIS_TYPE":0,"NORAD_CAT_ID":67370,"ELEMENT_SET_NO":999,"REV_AT_EPOCH":2809,"BSTAR":0.00012964898,"MEAN_MOTION_DOT":0.00001153,"MEAN_MOTION_DDOT":0},{"OBJECT_NAME":"LEMUR-2-KATIE","OBJECT_ID":"2026-004AA","EPOCH":"2026-07-19T17:19:26.487840","CLASSIFICATION_TYPE":"U","MEAN_MOTION":14.90271589,"ECCENTRICITY":0.0003072,"INCLINATION":97.8049,"RA_OF_ASC_NODE":199.3352,"ARG_OF_PERICENTER":22.546,"MEAN_ANOMALY":337.5892,"EPHEMERIS_TYPE":0,"NORAD_CAT_ID":67387,"ELEMENT_SET_NO":999,"REV_AT_EPOCH":2815,"BSTAR":0.00021769,"MEAN_MOTION_DOT":0.00002058,"MEAN_MOTION_DDOT":0},{"OBJECT_NAME":"LEMUR-2-HCS-BAZUS","OBJECT_ID":"2026-004AB","EPOCH":"2026-07-19T06:00:13.898304","CLASSIFICATION_TYPE":"U","MEAN_MOTION":14.90278599,"ECCENTRICITY":0.00026413,"INCLINATION":97.8039,"RA_OF_ASC_NODE":198.847,"ARG_OF_PERICENTER":25.2355,"MEAN_ANOMALY":334.8991,"EPHEMERIS_TYPE":0,"NORAD_CAT_ID":67388,"ELEMENT_SET_NO":999,"REV_AT_EPOCH":2808,"BSTAR":0.00018934613,"MEAN_MOTION_DOT":0.00001783,"MEAN_MOTION_DDOT":0}]}
